NORAD_CAT_ID,OBJECT_NAME,OBJECT_TYPE,EPOCH,MEAN_MOTION,ECCENTRICITY,INCLINATION,RA_OF_ASC_NODE,ARG_OF_PERICENTER,MEAN_ANOMALY,BSTAR,MEAN_MOTION_DOT,MEAN_MOTION_DDOT,TLE_LINE0,TLE_LINE1,TLE_LINE2,SEMIMAJOR_AXIS,PERIOD,APOGEE,PERIGEE,DECAYED
53259.0,STARLINK-4140,PAYLOAD,2023-06-29 17:07:10,15.08848985,0.0001176,53.2161,291.0068,84.9566,275.156,0.00044479,6.8e-05,0.0,0 STARLINK-4140,1 53259U 22086T   23180.71331910  .00006800  00000-0  44479-3 0  9996,2 53259  53.2161 291.0068 0001176  84.9566 275.1560 15.08848985 52349,6917.853,95.437,540.531,538.904,0.0
53259.0,STARLINK-4140,PAYLOAD,2023-07-01 13:37:59,15.08842203,0.0001191,53.2167,282.6818,90.8615,269.2514,0.00013114,1.8e-05,0.0,0 STARLINK-4140,1 53259U 22086T   23182.56804416  .00001800  00000-0  13114-3 0  9994,2 53259  53.2167 282.6818 0001191  90.8615 269.2514 15.08842203 52623,6917.874,95.437,540.563,538.915,0.0
53259.0,STARLINK-4140,PAYLOAD,2023-07-02 10:17:59,15.08838421,0.0001202,53.2165,278.8166,92.6436,267.4693,0.00013019,1.785e-05,0.0,0 STARLINK-4140,1 53259U 22086T   23183.42916659  .00001785  00000-0  13019-3 0  9999,2 53259  53.2165 278.8166 0001202  92.6436 267.4693 15.08838421 52757,6917.885,95.438,540.582,538.919,0.0
53259.0,STARLINK-4140,PAYLOAD,2023-07-03 13:19:32,15.08845766,0.0001166,53.2162,273.7616,93.0298,267.0828,0.00013979,1.938e-05,0.0,0 STARLINK-4140,1 53259U 22086T   23184.55524139  .00001938  00000-0  13979-3 0  9997,2 53259  53.2162 273.7616 0001166  93.0298 267.0828 15.08845766 52923,6917.863,95.437,540.534,538.921,0.0
53259.0,STARLINK-4140,PAYLOAD,2023-07-04 11:34:57,15.08836507,0.0001137,53.2161,269.5984,94.2077,265.9045,-1.0515e-06,-3.05e-06,0.0,0 STARLINK-4140,1 53259U 22086T   23185.48260642 -.00000305  00000-0 -10515-5 0  9990,2 53259  53.2161 269.5984 0001137  94.2077 265.9045 15.08836507 53066,6917.891,95.438,540.543,538.97,0.0
53259.0,STARLINK-4140,PAYLOAD,2023-07-05 14:36:30,15.08841298,0.0001056,53.2167,264.5431,84.2688,275.8424,4.6279e-05,4.49e-06,0.0,0 STARLINK-4140,1 53259U 22086T   23186.60868789  .00000449  00000-0  46279-4 0  9993,2 53259  53.2167 264.5431 0001056  84.2688 275.8424 15.08841298 53234,6917.876,95.437,540.472,539.011,0.0
53259.0,STARLINK-4140,PAYLOAD,2023-07-06 23:59:36,15.08844627,0.0001087,53.2166,258.2985,82.7338,277.3778,0.0001265,1.726e-05,0.0,0 STARLINK-4140,1 53259U 22086T   23187.99972440  .00001726  00000-0  12650-3 0  9990,2 53259  53.2166 258.2985 0001087  82.7338 277.3778 15.08844627 53447,6917.866,95.437,540.483,538.979,0.0
53259.0,STARLINK-4140,PAYLOAD,2023-07-08 10:58:05,15.08843241,0.0001072,53.2158,251.7545,93.9831,266.1284,3.6268e-05,2.9e-06,0.0,0 STARLINK-4140,1 53259U 22086T   23189.45700454  .00000290  00000-0  36268-4 0  9994,2 53259  53.2158 251.7545 0001072  93.9831 266.1284 15.08843241 53667,6917.87,95.437,540.477,538.994,0.0
53259.0,STARLINK-4140,PAYLOAD,2023-07-09 10:48:53,15.08833132,0.0001033,53.2166,247.2963,90.8083,269.3028,-3.4587e-05,-8.38e-06,0.0,0 STARLINK-4140,1 53259U 22086T   23190.45061420 -.00000838  00000-0 -34587-4 0  9991,2 53259  53.2166 247.2963 0001033  90.8083 269.3028 15.08833132 53818,6917.901,95.438,540.481,539.052,0.0
53259.0,STARLINK-4140,PAYLOAD,2023-07-10 10:39:39,15.08839242,0.0001043,53.216,242.8352,91.4929,268.6183,7.6476e-05,9.3e-06,0.0,0 STARLINK-4140,1 53259U 22086T   23191.44420902  .00000930  00000-0  76476-4 0  9999,2 53259  53.2160 242.8352 0001043  91.4929 268.6183 15.08839242 53960,6917.883,95.438,540.469,539.026,0.0
53259.0,STARLINK-4140,PAYLOAD,2023-07-11 04:08:54,15.08830404,0.0001059,53.2158,239.5638,88.3579,271.7534,8.4058e-05,1.05e-05,0.0,0 STARLINK-4140,1 53259U 22086T   23192.17285672  .00001050  00000-0  84058-4 0  9992,2 53259  53.2158 239.5638 0001059  88.3579 271.7534 15.08830404 54079,6917.91,95.438,540.507,539.042,0.0
53259.0,STARLINK-4140,PAYLOAD,2023-07-11 12:05:50,15.0883616,0.0001071,53.2158,238.0771,88.5411,271.5704,0.00010222,1.339e-05,0.0,0 STARLINK-4140,1 53259U 22086T   23192.50405417  .00001339  00000-0  10222-3 0  9991,2 53259  53.2158 238.0771 0001071  88.5411 271.5704 15.08836160 54120,6917.892,95.438,540.498,539.016,0.0
53259.0,STARLINK-4140,PAYLOAD,2023-07-12 15:07:22,15.0884814,0.0001061,53.2157,233.0215,89.6893,270.4221,7.0089e-05,8.28e-06,0.0,0 STARLINK-4140,1 53259U 22086T   23193.63012726  .00000828  00000-0  70089-4 0  9993,2 53259  53.2157 233.0215 0001061  89.6893 270.4221 15.08848140 54293,6917.856,95.437,540.454,538.987,0.0
53259.0,STARLINK-4140,PAYLOAD,2023-07-13 11:47:24,15.08838876,0.0001054,53.2154,229.1542,84.5407,275.5706,1.7205e-05,-1.4e-07,0.0,0 STARLINK-4140,1 53259U 22086T   23194.49125574 -.00000014  00000-0  17205-4 0  9993,2 53259  53.2154 229.1542 0001054  84.5407 275.5706 15.08838876 54420,6917.884,95.438,540.478,539.02,0.0
53259.0,STARLINK-4140,PAYLOAD,2023-07-14 13:13:34,15.08843272,0.0001105,53.2156,224.3971,81.5107,278.6011,0.00010201,1.336e-05,0.0,0 STARLINK-4140,1 53259U 22086T   23195.55108960  .00001336  00000-0  10201-3 0  9996,2 53259  53.2156 224.3971 0001105  81.5107 278.6011 15.08843272 54582,6917.87,95.437,540.5,538.971,0.0
53259.0,STARLINK-4140,PAYLOAD,2023-07-16 03:22:50,15.08835016,0.0001268,53.2166,217.2602,88.0503,272.0634,-4.3476e-05,-9.8e-06,0.0,0 STARLINK-4140,1 53259U 22086T   23197.14085908 -.00000980  00000-0 -43476-4 0  9996,2 53259  53.2166 217.2602 0001268  88.0503 272.0634 15.08835016 54820,6917.896,95.438,540.638,538.883,0.0
53259.0,STARLINK-4140,PAYLOAD,2023-07-17 09:35:09,15.08839497,0.0001184,53.2163,211.612,86.47,273.6428,1.7551e-05,-9e-08,0.0,0 STARLINK-4140,1 53259U 22086T   23198.39941635 -.00000009  00000-0  17551-4 0  9998,2 53259  53.2163 211.6120 0001184  86.4700 273.6428 15.08839497 55015,6917.882,95.438,540.566,538.928,0.0
53259.0,STARLINK-4140,PAYLOAD,2023-07-19 06:05:57,15.08838419,0.0001133,53.2157,203.2851,81.6101,278.5019,3.9653e-05,3.43e-06,0.0,0 STARLINK-4140,1 53259U 22086T   23200.25414047  .00000343  00000-0  39653-4 0  9996,2 53259  53.2157 203.2851 0001133  81.6101 278.5019 15.08838419 55295,6917.885,95.438,540.534,538.966,0.0
53259.0,STARLINK-4140,PAYLOAD,2023-07-20 23:25:59,15.08838915,0.0001171,53.2161,195.5527,86.353,273.7596,3.3712e-05,2.49e-06,0.0,0 STARLINK-4140,1 53259U 22086T   23201.97638165  .00000249  00000-0  33712-4 0  9990,2 53259  53.2161 195.5527 0001171  86.3530 273.7596 15.08838915 55550,6917.884,95.438,540.559,538.939,0.0
53259.0,STARLINK-4140,PAYLOAD,2023-07-24 08:30:39,15.08837203,0.0001497,53.2166,180.3871,82.0627,278.0535,-2.094e-05,-6.21e-06,0.0,0 STARLINK-4140,1 53259U 22086T   23205.35462583 -.00000621  00000-0 -20940-4 0  9990,2 53259  53.2166 180.3871 0001497  82.0627 278.0535 15.08837203 56247,6917.889,95.438,540.79,538.718,0.0
53259.0,STARLINK-4140,PAYLOAD,2023-07-25 09:56:49,15.08842237,0.0001166,53.2167,175.629,111.8902,248.2214,5.3623e-06,-2.02e-06,0.0,0 STARLINK-4140,1 53259U 22086T   23206.41446195 -.00000202  00000-0  53623-5 0  9998,2 53259  53.2167 175.6290 0001166 111.8902 248.2214 15.08842237 56404,6917.874,95.437,540.545,538.932,0.0
53259.0,STARLINK-4140,PAYLOAD,2023-07-26 08:12:13,15.08845001,0.0001037,53.211,171.4707,174.6842,185.4161,-9.0077e-05,-1.721e-05,0.0,0 STARLINK-4140,1 53259U 22086T   23207.34182321 -.00001721  00000-0 -90077-4 0  9990,2 53259  53.2110 171.4707 0001037 174.6842 185.4161 15.08845001 56546,6917.865,95.437,540.447,539.013,0.0
53259.0,STARLINK-4140,PAYLOAD,2023-07-27 00:06:05,15.08847964,0.0001132,53.2162,168.4929,100.7302,259.3817,-2.423e-05,-6.74e-06,0.0,0 STARLINK-4140,1 53259U 22086T   23208.00422655 -.00000674  00000-0 -24230-4 0  9995,2 53259  53.2162 168.4929 0001132 100.7302 259.3817 15.08847964 56462,6917.856,95.437,540.504,538.938,0.0
53259.0,STARLINK-4140,PAYLOAD,2023-07-27 14:24:33,15.08836214,0.0001483,53.2158,165.8213,71.0524,289.0629,7.8674e-05,9.64e-06,0.0,0 STARLINK-4140,1 53259U 22086T   23208.60038890  .00000964  00000-0  78674-4 0  9996,2 53259  53.2158 165.8213 0001483  71.0524 289.0629 15.08836214 56736,6917.892,95.438,540.783,538.731,0.0
53259.0,STARLINK-4140,PAYLOAD,2023-07-27 23:56:53,15.08832238,0.0001551,53.2159,164.0377,73.908,286.2083,-1.7927e-05,-5.73e-06,0.0,0 STARLINK-4140,1 53259U 22086T   23208.99783671 -.00000573  00000-0 -17927-4 0  9994,2 53259  53.2159 164.0377 0001551  73.9080 286.2083 15.08832238 56615,6917.904,95.438,540.842,538.696,0.0
53259.0,STARLINK-4140,PAYLOAD,2023-07-28 04:43:02,15.08834209,0.0001108,53.2162,163.1408,91.8417,268.2702,-3.9253e-05,-9.12e-06,0.0,0 STARLINK-4140,1 53259U 22086T   23209.19655538 -.00000912  00000-0 -39253-4 0  9990,2 53259  53.2162 163.1408 0001108  91.8417 268.2702 15.08834209 56826,6917.898,95.438,540.53,538.997,0.0
53259.0,STARLINK-4140,PAYLOAD,2023-07-29 02:58:25,15.088476,0.0001223,53.2164,158.9785,81.8307,278.2823,1.0772e-05,-1.16e-06,0.0,0 STARLINK-4140,1 53259U 22086T   23210.12390674 -.00000116  00000-0  10772-4 0  9992,2 53259  53.2164 158.9785 0001223  81.8307 278.2823 15.08847600 56782,6917.857,95.437,540.568,538.876,0.0
53259.0,STARLINK-4140,PAYLOAD,2023-07-30 02:49:12,15.08838569,0.0001268,53.2168,154.5169,85.4676,274.6461,0.00010832,1.436e-05,0.0,0 STARLINK-4140,1 53259U 22086T   23211.11750993  .00001436  00000-0  10832-3 0  9997,2 53259  53.2168 154.5169 0001268  85.4676 274.6461 15.08838569 56931,6917.885,95.438,540.627,538.873,0.0
53259.0,STARLINK-4140,PAYLOAD,2023-07-31 05:50:46,15.0884361,0.0001284,53.2164,149.461,77.2875,282.826,-8.7988e-06,-4.28e-06,0.0,0 STARLINK-4140,1 53259U 22086T   23212.24359098 -.00000428  00000-0 -87988-5 0  9993,2 53259  53.2164 149.4610 0001284  77.2875 282.8260 15.08843610 57100,6917.869,95.437,540.623,538.846,0.0
53259.0,STARLINK-4140,PAYLOAD,2023-07-31 18:33:51,15.08835238,0.0001265,53.216,147.0829,92.3249,267.7888,1.3968e-05,-6.6e-07,0.0,0 STARLINK-4140,1 53259U 22086T   23212.77351682 -.00000066  00000-0  13968-4 0  9995,2 53259  53.2160 147.0829 0001265  92.3249 267.7888 15.08835238 57187,6917.895,95.438,540.635,538.885,0.0
